{"type": "FeatureCollection", "features": [{"type": "Feature", "id": "NC.C020", "properties": {"commType": "UNK", "intensity_stddev": "0.6", "location": "", "channels": [{"name": "01.HNN", "amplitudes": [{"value": "0.8106", "name": "pga", "units": "%g", "ln_stddev": "0.0000", "flag": "0"}, {"value": "1.5474", "name": "sa(0.3)", "units": "%g", "ln_stddev": "0.0000", "flag": "0"}, {"value": "0.6953", "name": "pgv", "units": "cm/s", "ln_stddev": "0.0000", "flag": "0"}, {"value": "0.2123", "name": "sa(3.0)", "units": "%g", "ln_stddev": "0.0000", "flag": "0"}, {"value": "1.1397", "name": "sa(1.0)", "units": "%g", "ln_stddev": "0.0000", "flag": "0"}]}, {"name": "01.HNE", "amplitudes": [{"value": "0.6526", "name": "pga", "units": "%g", "ln_stddev": "0.0000", "flag": "0"}, {"value": "1.3148", "name": "sa(0.3)", "units": "%g", "ln_stddev": "0.0000", "flag": "0"}, {"value": "0.6230", "name": "pgv", "units": "cm/s", "ln_stddev": "0.0000", "flag": "0"}, {"value": "0.1360", "name": "sa(3.0)", "units": "%g", "ln_stddev": "0.0000", "flag": "0"}, {"value": "1.1949", "name": "sa(1.0)", "units": "%g", "ln_stddev": "0.0000", "flag": "0"}]}, {"name": "01.HNZ", "amplitudes": [{"value": "0.3595", "name": "pga", "units": "%g", "ln_stddev": "0.0000", "flag": "0"}, {"value": "1.0759", "name": "sa(0.3)", "units": "%g", "ln_stddev": "0.0000", "flag": "0"}, {"value": "0.3438", "name": "pgv", "units": "cm/s", "ln_stddev": "0.0000", "flag": "0"}, {"value": "0.1323", "name": "sa(3.0)", "units": "%g", "ln_stddev": "0.0000", "flag": "0"}, {"value": "0.4121", "name": "sa(1.0)", "units": "%g", "ln_stddev": "0.0000", "flag": "0"}]}], "network": "NC", "distance": "47.47", "name": "Rhoda Av Oakland", "intensity": "3.4", "pgv": "0.6953", "code": "NC.C020", "source": "NC", "predictions": {"mmi": {"ln_bias": -0.12377478004410962, "ln_tau": 0.2251063590279244, "ln_phi": 0.7192543151829733, "value": 4.119864620692463, "units": "intensity", "ln_sigma": 0.7536575102685149}, "sa(1.0)": {"ln_bias": -0.021415630357570502, "ln_tau": 0.39160065974095976, "ln_phi": 0.6534035878967587, "value": 1.9286781917829843, "units": "%g", "ln_sigma": 0.7617659255873238}, "sa(0.3)": {"ln_bias": -0.6213070272627229, "ln_tau": 0.4057961265743311, "ln_phi": 0.6372701516390015, "value": 6.857917298086809, "units": "%g", "ln_sigma": 0.7555023113880768}, "pga": {"ln_bias": -0.7018944300064925, "ln_tau": 0.41252837613161675, "ln_phi": 0.568136601431212, "value": 3.6973096018584743, "units": "%g", "ln_sigma": 0.7021102897690623}, "pgv": {"ln_bias": -0.13545064314516098, "ln_tau": 0.3526030929495676, "ln_phi": 0.5435754985820691, "value": 2.257612504175097, "units": "cm/s", "ln_sigma": 0.6479222668008459}, "sa(3.0)": {"ln_bias": 0.4023915184240243, "ln_tau": 0.3948032990141956, "ln_phi": 0.6210779771303594, "value": 0.3438925840742805, "units": "%g", "ln_sigma": 0.735939874302807}}, "instrumentType": "OBSERVED", "distances": {"rjb": 47.437792329712906, "ry0": 47.49890144431964, "rx": 1.1320663544411902, "rhypo": 48.277811253186684, "rrup": 47.47248220429688}, "pga": "0.8106", "intensity_flag": ""}, "geometry": {"type": "Point", "coordinates": [-122.20752, 37.800846]}}, {"type": "Feature", "id": "NC.KCT", "properties": {"commType": "UNK", "intensity_stddev": "0.6", "location": "", "channels": [{"name": "--.HNE", "amplitudes": [{"value": "0.0423", "name": "pga", "units": "%g", "ln_stddev": "0.0000", "flag": "0"}, {"value": "0.0443", "name": "sa(0.3)", "units": "%g", "ln_stddev": "0.0000", "flag": "0"}, {"value": "0.1993", "name": "pgv", "units": "cm/s", "ln_stddev": "0.0000", "flag": "0"}, {"value": "0.1375", "name": "sa(3.0)", "units": "%g", "ln_stddev": "0.0000", "flag": "0"}, {"value": "0.0669", "name": "sa(1.0)", "units": "%g", "ln_stddev": "0.0000", "flag": "0"}]}, {"name": "--.HNN", "amplitudes": [{"value": "0.0352", "name": "pga", "units": "%g", "ln_stddev": "0.0000", "flag": "0"}, {"value": "0.0375", "name": "sa(0.3)", "units": "%g", "ln_stddev": "0.0000", "flag": "0"}, {"value": "0.1232", "name": "pgv", "units": "cm/s", "ln_stddev": "0.0000", "flag": "0"}, {"value": "0.1073", "name": "sa(3.0)", "units": "%g", "ln_stddev": "0.0000", "flag": "0"}, {"value": "0.0709", "name": "sa(1.0)", "units": "%g", "ln_stddev": "0.0000", "flag": "0"}]}, {"name": "--.HNZ", "amplitudes": [{"value": "0.0351", "name": "pga", "units": "%g", "ln_stddev": "0.0000", "flag": "0"}, {"value": "0.0360", "name": "sa(0.3)", "units": "%g", "ln_stddev": "0.0000", "flag": "0"}, {"value": "0.1529", "name": "pgv", "units": "cm/s", "ln_stddev": "0.0000", "flag": "0"}, {"value": "0.1344", "name": "sa(3.0)", "units": "%g", "ln_stddev": "0.0000", "flag": "0"}, {"value": "0.0400", "name": "sa(1.0)", "units": "%g", "ln_stddev": "0.0000", "flag": "0"}]}], "network": "NC", "distance": "295.89", "name": "Cape Town", "intensity": "2.6", "pgv": "0.1993", "code": "NC.KCT", "source": "NC", "predictions": {"mmi": {"ln_bias": -0.12722892014228426, "ln_tau": 0.23431788717019536, "ln_phi": 0.7290224467079713, "value": 2.5476525329589053, "units": "intensity", "ln_sigma": 0.7657536157616112}, "sa(1.0)": {"ln_bias": -0.021832260941462348, "ln_tau": 0.43318072819747744, "ln_phi": 0.7030432705211384, "value": 0.1947525482672122, "units": "%g", "ln_sigma": 0.8257816802925307}, "sa(0.3)": {"ln_bias": -0.6475313373528432, "ln_tau": 0.5162283690717899, "ln_phi": 0.7426325826804985, "value": 0.2547983799638723, "units": "%g", "ln_sigma": 0.9044306949088071}, "pga": {"ln_bias": -0.7005244254313703, "ln_tau": 0.40634129880707986, "ln_phi": 0.5874567773849864, "value": 0.10794277532334529, "units": "%g", "ln_sigma": 0.7142959585576402}, "pgv": {"ln_bias": -0.1363699005235103, "ln_tau": 0.3670318870884031, "ln_phi": 0.5746170330554385, "value": 0.19236115203348356, "units": "cm/s", "ln_sigma": 0.681833660665935}, "sa(3.0)": {"ln_bias": 0.41129345643440696, "ln_tau": 0.4355549863307765, "ln_phi": 0.6698965570688954, "value": 0.04686951531800768, "units": "%g", "ln_sigma": 0.7990428920216753}}, "instrumentType": "OBSERVED", "distances": {"rjb": 295.96490640511536, "ry0": 267.93972967747357, "rx": -124.90068127246516, "rhypo": 305.95856263353716, "rrup": 295.8850197752911}, "pga": "0.0423", "intensity_flag": ""}, "geometry": {"type": "Point", "coordinates": [-124.337486, 40.475567]}}, {"type": "Feature", "id": "CI.Q0035", "properties": {"commType": "UNK", "intensity_stddev": "0.6", "location": "", "channels": [{"name": "01.HNN", "amplitudes": [{"value": "0.0082", "name": "pga", "units": "%g", "ln_stddev": "0.0000", "flag": "0"}, {"value": "0.0075", "name": "sa(0.3)", "units": "%g", "ln_stddev": "0.0000", "flag": "0"}, {"value": "0.0046", "name": "pgv", "units": "cm/s", "ln_stddev": "0.0000", "flag": "T"}, {"value": "0.0015", "name": "sa(3.0)", "units": "%g", "ln_stddev": "0.0000", "flag": "0"}, {"value": "0.0021", "name": "sa(1.0)", "units": "%g", "ln_stddev": "0.0000", "flag": "T"}]}, {"name": "01.HNE", "amplitudes": [{"value": "0.0068", "name": "pga", "units": "%g", "ln_stddev": "0.0000", "flag": "0"}, {"value": "0.0063", "name": "sa(0.3)", "units": "%g", "ln_stddev": "0.0000", "flag": "0"}, {"value": "0.0032", "name": "pgv", "units": "cm/s", "ln_stddev": "0.0000", "flag": "T"}, {"value": "0.0027", "name": "sa(3.0)", "units": "%g", "ln_stddev": "0.0000", "flag": "0"}, {"value": "0.0030", "name": "sa(1.0)", "units": "%g", "ln_stddev": "0.0000", "flag": "T"}]}, {"name": "01.HNZ", "amplitudes": [{"value": "0.0071", "name": "pga", "units": "%g", "ln_stddev": "0.0000", "flag": "0"}, {"value": "0.0035", "name": "sa(0.3)", "units": "%g", "ln_stddev": "0.0000", "flag": "0"}, {"value": "0.0042", "name": "pgv", "units": "cm/s", "ln_stddev": "0.0000", "flag": "T"}, {"value": "0.0020", "name": "sa(3.0)", "units": "%g", "ln_stddev": "0.0000", "flag": "0"}, {"value": "0.0028", "name": "sa(1.0)", "units": "%g", "ln_stddev": "0.0000", "flag": "T"}]}], "network": "CI", "distance": "555.75", "name": "Ninth Street, Acton Ca 93510", "intensity": "1.0", "pgv": "null", "code": "CI.Q0035", "source": "CI", "predictions": {"mmi": {"ln_bias": -0.17080053206901277, "ln_tau": 0.48176767628158135, "ln_phi": 0.8958855663795952, "value": 1.6854341441454674, "units": "intensity", "ln_sigma": 1.0172074724248945}, "sa(1.0)": {"ln_bias": -0.022713632773361976, "ln_tau": 0.5820177683057624, "ln_phi": 0.8033494586815993, "value": 0.06111509009272449, "units": "%g", "ln_sigma": 0.9920257231481645}, "sa(0.3)": {"ln_bias": -0.6721252030462017, "ln_tau": 0.7578862102722966, "ln_phi": 0.9270417931317207, "value": 0.026140374683344368, "units": "%g", "ln_sigma": 1.1974130423265732}, "pga": {"ln_bias": -0.7156619075587217, "ln_tau": 0.4937124101162907, "ln_phi": 0.6509598903673879, "value": 0.008588491558743794, "units": "%g", "ln_sigma": 0.8170071742463209}, "pgv": {"ln_bias": -0.14195912984309964, "ln_tau": 0.5112032579227421, "ln_phi": 0.6758717877059145, "value": 0.053779258874719724, "units": "cm/s", "ln_sigma": 0.8474263651360007}, "sa(3.0)": {"ln_bias": 0.41910566541704675, "ln_tau": 0.48184907595566057, "ln_phi": 0.7008807925641938, "value": 0.020658483561528263, "units": "%g", "ln_sigma": 0.8505365467660613}}, "instrumentType": "OBSERVED", "distances": {"rjb": 556.1187920925498, "ry0": 467.495080188296, "rx": 301.2803334404843, "rhypo": 556.0587752718209, "rrup": 555.7473449958633}, "pga": "0.0082", "intensity_flag": ""}, "geometry": {"type": "Point", "coordinates": [-118.20404, 34.46575]}}, {"type": "Feature", "id": "NC.JCH", "properties": {"commType": "UNK", "intensity_stddev": "0.6", "location": "", "channels": [{"name": "--.HNE", "amplitudes": [{"value": "1.0886", "name": "pga", "units": "%g", "ln_stddev": "0.0000", "flag": "0"}, {"value": "2.4741", "name": "sa(0.3)", "units": "%g", "ln_stddev": "0.0000", "flag": "0"}, {"value": "0.5308", "name": "pgv", "units": "cm/s", "ln_stddev": "0.0000", "flag": "0"}, {"value": "0.1126", "name": "sa(3.0)", "units": "%g", "ln_stddev": "0.0000", "flag": "0"}, {"value": "0.8222", "name": "sa(1.0)", "units": "%g", "ln_stddev": "0.0000", "flag": "0"}]}, {"name": "--.HNN", "amplitudes": [{"value": "0.8941", "name": "pga", "units": "%g", "ln_stddev": "0.0000", "flag": "0"}, {"value": "1.6639", "name": "sa(0.3)", "units": "%g", "ln_stddev": "0.0000", "flag": "0"}, {"value": "0.5040", "name": "pgv", "units": "cm/s", "ln_stddev": "0.0000", "flag": "0"}, {"value": "0.1974", "name": "sa(3.0)", "units": "%g", "ln_stddev": "0.0000", "flag": "0"}, {"value": "0.7671", "name": "sa(1.0)", "units": "%g", "ln_stddev": "0.0000", "flag": "0"}]}, {"name": "--.HNZ", "amplitudes": [{"value": "0.4350", "name": "pga", "units": "%g", "ln_stddev": "0.0000", "flag": "0"}, {"value": "1.0635", "name": "sa(0.3)", "units": "%g", "ln_stddev": "0.0000", "flag": "0"}, {"value": "0.2642", "name": "pgv", "units": "cm/s", "ln_stddev": "0.0000", "flag": "0"}, {"value": "0.1356", "name": "sa(3.0)", "units": "%g", "ln_stddev": "0.0000", "flag": "0"}, {"value": "0.6323", "name": "sa(1.0)", "units": "%g", "ln_stddev": "0.0000", "flag": "0"}]}], "network": "NC", "distance": "78.24", "name": "Cahill Ridge", "intensity": "3.2", "pgv": "0.5308", "code": "NC.JCH", "source": "NC", "predictions": {"mmi": {"ln_bias": -0.12226674212018153, "ln_tau": 0.2212656141351735, "ln_phi": 0.7180632061553781, "value": 3.741941235740406, "units": "intensity", "ln_sigma": 0.7513808887859449}, "sa(1.0)": {"ln_bias": -0.02142189288148098, "ln_tau": 0.3921500126873623, "ln_phi": 0.6537373539526572, "value": 1.0981481006005984, "units": "%g", "ln_sigma": 0.7623346774243713}, "sa(0.3)": {"ln_bias": -0.6288616298375939, "ln_tau": 0.43095146170703946, "ln_phi": 0.6536118451676391, "value": 3.583243107071403, "units": "%g", "ln_sigma": 0.7828969322272759}, "pga": {"ln_bias": -0.7043117065212844, "ln_tau": 0.42410529929180263, "ln_phi": 0.5766554067014356, "value": 1.882301378359361, "units": "%g", "ln_sigma": 0.715818945659716}, "pgv": {"ln_bias": -0.13503709934245997, "ln_tau": 0.3465870099998797, "ln_phi": 0.5396978998430976, "value": 1.248989144551581, "units": "cm/s", "ln_sigma": 0.6414018854008046}, "sa(3.0)": {"ln_bias": 0.40156199650882574, "ln_tau": 0.39148499581672014, "ln_phi": 0.6189784745852577, "value": 0.2015903078998615, "units": "%g", "ln_sigma": 0.7323898237615742}}, "instrumentType": "OBSERVED", "distances": {"rjb": 78.2291618616606, "ry0": 76.03607609915463, "rx": -18.978536916262023, "rhypo": 78.63197407929779, "rrup": 78.24242599121827}, "pga": "1.0886", "intensity_flag": ""}, "geometry": {"type": "Point", "coordinates": [-122.377304, 37.517036]}}, {"type": "Feature", "id": "NP.1755", "properties": {"commType": "UNK", "intensity_stddev": "0.6", "location": "", "channels": [{"name": "--.HNE", "amplitudes": [{"value": "1.0056", "name": "pga", "units": "%g", "ln_stddev": "0.0000", "flag": "0"}, {"value": "3.0565", "name": "sa(0.3)", "units": "%g", "ln_stddev": "0.0000", "flag": "0"}, {"value": "1.1794", "name": "pgv", "units": "cm/s", "ln_stddev": "0.0000", "flag": "0"}, {"value": "0.4588", "name": "sa(3.0)", "units": "%g", "ln_stddev": "0.0000", "flag": "0"}, {"value": "1.1354", "name": "sa(1.0)", "units": "%g", "ln_stddev": "0.0000", "flag": "0"}]}, {"name": "--.HNN", "amplitudes": [{"value": "1.6327", "name": "pga", "units": "%g", "ln_stddev": "0.0000", "flag": "0"}, {"value": "2.3878", "name": "sa(0.3)", "units": "%g", "ln_stddev": "0.0000", "flag": "0"}, {"value": "1.4689", "name": "pgv", "units": "cm/s", "ln_stddev": "0.0000", "flag": "0"}, {"value": "0.3541", "name": "sa(3.0)", "units": "%g", "ln_stddev": "0.0000", "flag": "0"}, {"value": "1.4005", "name": "sa(1.0)", "units": "%g", "ln_stddev": "0.0000", "flag": "0"}]}, {"name": "--.HNZ", "amplitudes": [{"value": "0.6704", "name": "pga", "units": "%g", "ln_stddev": "0.0000", "flag": "0"}, {"value": "1.2622", "name": "sa(0.3)", "units": "%g", "ln_stddev": "0.0000", "flag": "0"}, {"value": "0.5019", "name": "pgv", "units": "cm/s", "ln_stddev": "0.0000", "flag": "0"}, {"value": "0.1535", "name": "sa(3.0)", "units": "%g", "ln_stddev": "0.0000", "flag": "0"}, {"value": "1.3860", "name": "sa(1.0)", "units": "%g", "ln_stddev": "0.0000", "flag": "0"}]}], "network": "NP", "distance": "51.16", "name": "CA:Alameda;FS 1", "intensity": "3.8", "pgv": "1.4689", "code": "NP.1755", "source": "NP", "predictions": {"mmi": {"ln_bias": -0.12356915317027713, "ln_tau": 0.22457648498422506, "ln_phi": 0.7190889571367843, "value": 4.063473192146407, "units": "intensity", "ln_sigma": 0.7533415731817393}, "sa(1.0)": {"ln_bias": -0.02141713517796494, "ln_tau": 0.3917324821737116, "ln_phi": 0.6534834082099212, "value": 1.7731769860724662, "units": "%g", "ln_sigma": 0.7619021606450738}, "sa(0.3)": {"ln_bias": -0.6223520479198703, "ln_tau": 0.40904906459404855, "ln_phi": 0.639353071761497, "value": 6.24413252721768, "units": "%g", "ln_sigma": 0.7590082263165058}, "pga": {"ln_bias": -0.7021886445416233, "ln_tau": 0.41389108032297844, "ln_phi": 0.5691376678193257, "value": 3.3560244735794194, "units": "%g", "ln_sigma": 0.7037211886121828}, "pgv": {"ln_bias": -0.13539470140589188, "ln_tau": 0.3517731065045427, "ln_phi": 0.5430384552748645, "value": 2.066749712155495, "units": "cm/s", "ln_sigma": 0.6470201560748841}, "sa(3.0)": {"ln_bias": 0.4022635667152533, "ln_tau": 0.39428685204747915, "ln_phi": 0.6207506584530238, "value": 0.3172192867818613, "units": "%g", "ln_sigma": 0.7353866341370187}}, "instrumentType": "OBSERVED", "distances": {"rjb": 51.1269854405678, "ry0": 51.14140536988645, "rx": -2.7284149436094154, "rhypo": 51.88402336846557, "rrup": 51.1580555495554}, "pga": "1.6327", "intensity_flag": ""}, "geometry": {"type": "Point", "coordinates": [-122.24377, 37.76265]}}, {"type": "Feature", "id": "CI.WLH2", "properties": {"commType": "UNK", "intensity_stddev": "0.6", "location": "", "channels": [{"name": "--.HHZ", "amplitudes": [{"value": "0.0044", "name": "pga", "units": "%g", "ln_stddev": "0.0000", "flag": "0"}, {"value": "0.0082", "name": "sa(0.3)", "units": "%g", "ln_stddev": "0.0000", "flag": "0"}, {"value": "0.0111", "name": "pgv", "units": "cm/s", "ln_stddev": "0.0000", "flag": "0"}, {"value": "0.0042", "name": "sa(3.0)", "units": "%g", "ln_stddev": "0.0000", "flag": "0"}, {"value": "0.0104", "name": "sa(1.0)", "units": "%g", "ln_stddev": "0.0000", "flag": "0"}]}, {"name": "--.HHN", "amplitudes": [{"value": "0.0053", "name": "pga", "units": "%g", "ln_stddev": "0.0000", "flag": "0"}, {"value": "0.0096", "name": "sa(0.3)", "units": "%g", "ln_stddev": "0.0000", "flag": "0"}, {"value": "0.0113", "name": "pgv", "units": "cm/s", "ln_stddev": "0.0000", "flag": "0"}, {"value": "0.0032", "name": "sa(3.0)", "units": "%g", "ln_stddev": "0.0000", "flag": "0"}, {"value": "0.0075", "name": "sa(1.0)", "units": "%g", "ln_stddev": "0.0000", "flag": "0"}]}, {"name": "--.HHE", "amplitudes": [{"value": "0.0064", "name": "pga", "units": "%g", "ln_stddev": "0.0000", "flag": "0"}, {"value": "0.0150", "name": "sa(0.3)", "units": "%g", "ln_stddev": "0.0000", "flag": "0"}, {"value": "0.0162", "name": "pgv", "units": "cm/s", "ln_stddev": "0.0000", "flag": "0"}, {"value": "0.0037", "name": "sa(3.0)", "units": "%g", "ln_stddev": "0.0000", "flag": "0"}, {"value": "0.0142", "name": "sa(1.0)", "units": "%g", "ln_stddev": "0.0000", "flag": "0"}]}], "network": "CI", "distance": "422.49", "name": "Little Horse 2", "intensity": "1.0", "pgv": "0.0162", "code": "CI.WLH2", "source": "CI", "predictions": {"mmi": {"ln_bias": -0.13821909287613662, "ln_tau": 0.2684205407602569, "ln_phi": 0.740688109423425, "value": 2.1201011118336965, "units": "intensity", "ln_sigma": 0.7878251469350774}, "sa(1.0)": {"ln_bias": -0.022260258289534388, "ln_tau": 0.49080100133327337, "ln_phi": 0.7399397621002516, "value": 0.10577087597866176, "units": "%g", "ln_sigma": 0.8879169299245965}, "sa(0.3)": {"ln_bias": -0.6612308352118043, "ln_tau": 0.6185647151411899, "ln_phi": 0.8170903018490201, "value": 0.08032958175630016, "units": "%g", "ln_sigma": 1.0248213835558977}, "pga": {"ln_bias": -0.7063972586157775, "ln_tau": 0.4348462090618189, "ln_phi": 0.6075253345899311, "value": 0.03006060512419817, "units": "%g", "ln_sigma": 0.747113283046181}, "pgv": {"ln_bias": -0.13905885466589402, "ln_tau": 0.42044975225031844, "ln_phi": 0.6101240738946232, "value": 0.09846141266387018, "units": "cm/s", "ln_sigma": 0.7409651676787012}, "sa(3.0)": {"ln_bias": 0.4153438318614983, "ln_tau": 0.458021815421793, "ln_phi": 0.6847178395018033, "value": 0.030013245913165287, "units": "%g", "ln_sigma": 0.8237854715484441}}, "instrumentType": "OBSERVED", "distances": {"rjb": 422.71553726312794, "ry0": 280.46789410097625, "rx": 315.65223655490763, "rhypo": 422.14934854373644, "rrup": 422.4940934812918}, "pga": "0.0064", "intensity_flag": ""}, "geometry": {"type": "Point", "coordinates": [-118.313186, 36.152072]}}, {"type": "Feature", "id": "NC.C011", "properties": {"commType": "UNK", "intensity_stddev": "0.6", "location": "", "channels": [{"name": "01.HNN", "amplitudes": [{"value": "1.0752", "name": "pga", "units": "%g", "ln_stddev": "0.0000", "flag": "T"}, {"value": "2.0957", "name": "sa(0.3)", "units": "%g", "ln_stddev": "0.0000", "flag": "T"}, {"value": "0.9626", "name": "pgv", "units": "cm/s", "ln_stddev": "0.0000", "flag": "0"}, {"value": "0.2532", "name": "sa(3.0)", "units": "%g", "ln_stddev": "0.0000", "flag": "0"}, {"value": "1.0362", "name": "sa(1.0)", "units": "%g", "ln_stddev": "0.0000", "flag": "0"}]}, {"name": "01.HNE", "amplitudes": [{"value": "0.9523", "name": "pga", "units": "%g", "ln_stddev": "0.0000", "flag": "T"}, {"value": "1.5072", "name": "sa(0.3)", "units": "%g", "ln_stddev": "0.0000", "flag": "T"}, {"value": "0.7866", "name": "pgv", "units": "cm/s", "ln_stddev": "0.0000", "flag": "0"}, {"value": "0.2332", "name": "sa(3.0)", "units": "%g", "ln_stddev": "0.0000", "flag": "0"}, {"value": "1.1964", "name": "sa(1.0)", "units": "%g", "ln_stddev": "0.0000", "flag": "0"}]}, {"name": "01.HNZ", "amplitudes": [{"value": "0.5182", "name": "pga", "units": "%g", "ln_stddev": "0.0000", "flag": "T"}, {"value": "0.7654", "name": "sa(0.3)