{"features": [{"properties": {"instrumentType": "OBSERVED", "location": "", "distance": "36.99", "source": "HI", "commType": "UNK", "pgv": "14.0270", "channels": [{"name": "UNK", "amplitudes": [{"flag": "0", "name": "pga", "value": "31.6116", "units": "%g", "ln_stddev": "0.0000"}, {"flag": "0", "name": "pgv", "value": "14.0270", "units": "cm/s", "ln_stddev": "0.0000"}, {"flag": "0", "name": "sa(1.0)", "value": "16.7558", "units": "%g", "ln_stddev": "0.0000"}, {"flag": "0", "name": "sa(3.0)", "value": "2.2036", "units": "%g", "ln_stddev": "0.0000"}, {"flag": "0", "name": "sa(0.3)", "value": "73.2341", "units": "%g", "ln_stddev": "0.0000"}]}], "intensity_stddev": "0.6", "code": "LCI", "intensity_flag": "", "name": "LOS ANGELES", "distances": {"rrup": 36.986371088906935, "rx": 10.487738471322967, "ry0": 35.394391171530344, "rhypo": 42.11244708767075, "rjb": 35.07401258413432}, "predictions": {"pga": {"ln_phi": 0.5074240499941417, "ln_bias": 0.3100904438897951, "units": "%g", "ln_tau": 0.32659298284703286, "ln_sigma": 0.6034419134907514, "value": 13.06016888503579}, "sa(3.0)": {"ln_phi": 0.6419527086766484, "ln_bias": 0.05032998805042339, "units": "%g", "ln_tau": 0.4096770275760183, "ln_sigma": 0.7615369637127324, "value": 2.6999441795175416}, "pgv": {"ln_phi": 0.532506591858747, "ln_bias": 0.19146896716442616, "units": "cm/s", "ln_tau": 0.34611464578715756, "ln_sigma": 0.6351052026250358, "value": 11.578955758333125}, "sa(0.3)": {"ln_phi": 0.5867683093819316, "ln_bias": 0.23655807782182253, "units": "%g", "ln_tau": 0.32776451208161667, "ln_sigma": 0.6721061108746375, "value": 31.7984891691801}, "mmi": {"ln_phi": 0.9648644133335178, "ln_bias": 0.5362533128260198, "units": "intensity", "ln_tau": 0.47499755123718507, "ln_sigma": 1.0754468884137216, "value": 5.945195286783684}, "sa(1.0)": {"ln_phi": 0.6505487341436164, "ln_bias": 0.3471441336047813, "units": "%g", "ln_tau": 0.37793893315413657, "ln_sigma": 0.7523639363297184, "value": 11.959235741813208}}, "network": "HI", "intensity": "6.2", "pga": "31.6116"}, "type": "Feature", "id": "HI.LCI", "geometry": {"coordinates": [-118.17, 34.053], "type": "Point"}}, {"properties": {"instrumentType": "OBSERVED", "location": "", "distance": "84.18", "source": "CIIM", "commType": "UNK", "pgv": "11.2038", "channels": [{"name": "mmi", "amplitudes": [{"flag": "0", "name": "mmi", "value": "5.9000", "units": "intensity", "ln_stddev": "0.0000"}]}], "intensity_stddev": "0.3", "code": "92663", "intensity_flag": "", "name": "ZIP Code 92663 (Intensity VI, 9 responses)", "distances": {"rrup": 84.1804082980611, "rx": 39.038682142212906, "ry0": 79.66772065394038, "rhypo": 88.04132201188807, "rjb": 81.89899501660382}, "predictions": {"pga": {"ln_phi": 0.49830868244793547, "ln_bias": 0.3093761265621041, "units": "%g", "ln_tau": 0.32179859922627224, "ln_sigma": 0.593182839828487, "value": 6.012271478215105}, "sa(3.0)": {"ln_phi": 0.6345760817553181, "ln_bias": 0.049972807463483634, "units": "%g", "ln_tau": 0.3979943615395255, "ln_sigma": 0.7490569506741037, "value": 1.8470751049287166}, "mmi": {"ln_phi": 0.9476364051327035, "ln_bias": 0.5316948289138188, "units": "intensity", "ln_tau": 0.45648349691544615, "ln_sigma": 1.0518516717146897, "value": 5.169144071502801}, "sa(0.3)": {"ln_phi": 0.577288151664145, "ln_bias": 0.23524279405723092, "units": "%g", "ln_tau": 0.32081946729872796, "ln_sigma": 0.66044435091054, "value": 16.912980052013367}, "pgv": {"ln_phi": 0.5158188416924201, "ln_bias": 0.19014411540840695, "units": "cm/s", "ln_tau": 0.33262408075800626, "ln_sigma": 0.6137653106400024, "value": 6.577843960327046}, "sa(1.0)": {"ln_phi": 0.6383455730771062, "ln_bias": 0.3438632383909584, "units": "%g", "ln_tau": 0.3616493532894692, "ln_sigma": 0.7336724919211776, "value": 7.742706297701451}}, "network": "CIIM", "intensity": "5.9", "pga": "11.4395"}, "type": "Feature", "id": "CIIM.92663", "geometry": {"coordinates": [-117.930014, 33.623016], "type": "Point"}}, {"properties": {"instrumentType": "OBSERVED", "location": "", "distance": "145.30", "source": "HI", "commType": "UNK", "pgv": "4.7148", "channels": [{"name": "UNK", "amplitudes": [{"flag": "0", "name": "pga", "value": "6.3769", "units": "%g", "ln_stddev": "0.0000"}, {"flag": "0", "name": "pgv", "value": "4.7148", "units": "cm/s", "ln_stddev": "0.0000"}, {"flag": "0", "name": "sa(1.0)", "value": "4.0218", "units": "%g", "ln_stddev": "0.0000"}, {"flag": "0", "name": "sa(3.0)", "value": "0.3796", "units": "%g", "ln_stddev": "0.0000"}, {"flag": "0", "name": "sa(0.3)", "value": "18.1346", "units": "%g", "ln_stddev": "0.0000"}]}], "intensity_stddev": "0.6", "code": "HRA", "intensity_flag": "", "name": "HEMET", "distances": {"rrup": 145.30186456151733, "rx": -16.466298121775992, "ry0": 144.11380494276432, "rhypo": 150.77032514158398, "rjb": 145.2462527872077}, "predictions": {"pga": {"ln_phi": 0.5425018428478752, "ln_bias": 0.3149075498540251, "units": "%g", "ln_tau": 0.3648877124374583, "ln_sigma": 0.6537975926700724, "value": 1.6156606123550952}, "sa(3.0)": {"ln_phi": 0.642784660313997, "ln_bias": 0.050086605757977465, "units": "%g", "ln_tau": 0.40162518425360005, "ln_sigma": 0.7579412300183429, "value": 0.3886257062049289}, "pgv": {"ln_phi": 0.5610155535113338, "ln_bias": 0.19406582286282864, "units": "cm/s", "ln_tau": 0.3774045277730115, "ln_sigma": 0.6761454199099466, "value": 1.7090308680420563}, "sa(0.3)": {"ln_phi": 0.6123425024773829, "ln_bias": 0.23949095580105487, "units": "%g", "ln_tau": 0.34470155965000476, "ln_sigma": 0.7026965956694322, "value": 3.3489406390304137}, "mmi": {"ln_phi": 0.724691845121708, "ln_bias": 0.4128109545216026, "units": "intensity", "ln_tau": 0.24093991466996853, "ln_sigma": 0.7636951701216117, "value": 3.8161423631403375}, "sa(1.0)": {"ln_phi": 0.6568364785501659, "ln_bias": 0.3469422465963934, "units": "%g", "ln_tau": 0.3768817856656542, "ln_sigma": 0.7572806876718267, "value": 1.5433672671330787}}, "network": "HI", "intensity": "4.7", "pga": "6.3769"}, "type": "Feature", "id": "HI.HRA", "geometry": {"coordinates": [-117.02, 33.731], "type": "Point"}}, {"properties": {"instrumentType": "OBSERVED", "location": "", "distance": "60.64", "source": "HI", "commType": "UNK", "pgv": "11.8750", "channels": [{"name": "UNK", "amplitudes": [{"flag": "0", "name": "pga", "value": "13.6728", "units": "%g", "ln_stddev": "0.0000"}, {"flag": "0", "name": "pgv", "value": "11.8750", "units": "cm/s", "ln_stddev": "0.0000"}, {"flag": "0", "name": "sa(1.0)", "value": "12.5921", "units": "%g", "ln_stddev": "0.0000"}, {"flag": "0", "name": "sa(3.0)", "value": "2.2970", "units": "%g", "ln_stddev": "0.0000"}, {"flag": "0", "name": "sa(0.3)", "value": "16.9003", "units": "%g", "ln_stddev": "0.0000"}]}], "intensity_stddev": "0.6", "code": "VLO", "intensity_flag": "", "name": "LONG BEACH", "distances": {"rrup": 60.63713211541668, "rx": 33.884856432595186, "ry0": 55.614526278065625, "rhypo": 64.28288179816049, "rjb": 57.33434696521503}, "predictions": {"pga": {"ln_phi": 0.5032215558403633, "ln_bias": 0.30919795672854206, "units": "%g", "ln_tau": 0.3206319544953434, "ln_sigma": 0.5966881802967944, "value": 8.445799428962426}, "sa(3.0)": {"ln_phi": 0.634634855135354, "ln_bias": 0.049976183589045604, "units": "%g", "ln_tau": 0.3981009006829343, "ln_sigma": 0.7491633509971208, "value": 2.1480130254886083}, "pgv": {"ln_phi": 0.5236312447088775, "ln_bias": 0.1902255421679116, "units": "cm/s", "ln_tau": 0.33341328507494455, "ln_sigma": 0.6207689579061074, "value": 8.289924028486652}, "sa(0.3)": {"ln_phi": 0.5810053581155099, "ln_bias": 0.23509614465706527, "units": "%g", "ln_tau": 0.3200675461078788, "ln_sigma": 0.663332842719589, "value": 22.239358034971737}, "mmi": {"ln_phi": 0.9556720712747011, "ln_bias": 0.5319745793344213, "units": "intensity", "ln_tau": 0.4575665776880582, "ln_sigma": 1.0595641938229317, "value": 5.486619739754031}, "sa(1.0)": {"ln_phi": 0.6431799058578994, "ln_bias": 0.3448408870828116, "units": "%g", "ln_tau": 0.3663130906593491, "ln_sigma": 0.7401794861300742, "value": 9.281090343379937}}, "network": "HI", "intensity": "6.0", "pga": "13.6728"}, "type": "Feature", "id": "HI.VLO", "geometry": {"coordinates": [-118.12, 33.778], "type": "Point"}}, {"properties": {"instrumentType": "OBSERVED", "location": "", "distance": "17.76", "source": "CIIM", "commType": "UNK", "pgv": "33.4234", "channels": [{"name": "mmi", "amplitudes": [{"flag": "0", "name": "mmi", "value": "7.4000", "units": "intensity", "ln_stddev": "0.0000"}]}], "intensity_stddev": "0.3", "code": "91501", "intensity_flag": "", "name": "ZIP Code 91501 (Intensity VII, 35 responses)", "distances": {"rrup": 17.757723587401305, "rx": 2.6884094518361827, "ry0": 16.49990626051853, "rhypo": 28.300897132666478, "rjb": 16.42232803396346}, "predictions": {"pga": {"ln_phi": 0.5255900828343865, "ln_bias": 0.3135528751583894, "units": "%g", "ln_tau": 0.3529078022401957, "ln_sigma": 0.6330788671689036, "value": 23.303270676902006}, "sa(3.0)": {"ln_phi": 0.6442480405757354, "ln_bias": 0.05043361374999964, "units": "%g", "ln_tau": 0.4132304740095841, "ln_sigma": 0.7653854992328114, "value": 3.684233996178853}, "mmi": {"ln_phi": 0.9758927294586295, "ln_bias": 0.5409260861702668, "units": "intensity", "ln_tau": 0.4961335889315966, "ln_sigma": 1.0947671704414417, "value": 6.587360175347459}, "sa(0.3)": {"ln_phi": 0.5992647807036738, "ln_bias": 0.2394039082873998, "units": "%g", "ln_tau": 0.3441669274651944, "ln_sigma": 0.6910637824055422, "value": 50.08955869345988}, "pgv": {"ln_phi": 0.5430722212546701, "ln_bias": 0.19282266356503483, "units": "cm/s", "ln_tau": 0.36151576139478797, "ln_sigma": 0.6523964157131266, "value": 18.487838190042197}, "sa(1.0)": {"ln_phi": 0.6538169110219194, "ln_bias": 0.348053271168725, "units": "%g", "ln_tau": 0.3827963321622198, "ln_sigma": 0.7576342026697931, "value": 16.677823244311725}}, "network": "CIIM", "intensity": "7.4", "pga": "44.6809"}, "type": "Feature", "id": "CIIM.91501", "geometry": {"coordinates": [-118.298527, 34.202898], "type": "Point"}}, {"properties": {"instrumentType": "OBSERVED", "location": "", "distance": "80.94", "source": "CIIM", "commType": "UNK", "pgv": "10.4165", "channels": [{"name": "mmi", "amplitudes": [{"flag": "0", "name": "mmi", "value": "5.8000", "units": "intensity", "ln_stddev": "0.0000"}]}], "intensity_stddev": "0.3", "code": "91764", "intensity_flag": "", "name": "ZIP Code 91764 (Intensity VI, 17 responses)", "distances": {"rrup": 80.94336162674179, "rx": -19.606338421405596, "ry0": 78.19388668051799, "rhypo": 89.06459198509438, "rjb": 80.75864852509993}, "predictions": {"pga": {"ln_phi": 0.5135013794002437, "ln_bias": 0.31126543309892524, "units": "%g", "ln_tau": 0.33491511838939075, "ln_sigma": 0.6130675355715165, "value": 5.620868501749246}, "sa(3.0)": {"ln_phi": 0.637879571702486, "ln_bias": 0.050135406036238644, "units": "%g", "ln_tau": 0.4032077522157894, "ln_sigma": 0.7546302667149366, "value": 1.461143683386921}, "mmi": {"ln_phi": 0.9614351980672158, "ln_bias": 0.5346527412687099, "units": "intensity", "ln_tau": 0.46827952402998235, "ln_sigma": 1.0694126204175325, "value": 4.96498118168799}, "sa(0.3)": {"ln_phi": 0.5946250926660627, "ln_bias": 0.23871146952298006, "units": "%g", "ln_tau": 0.3399874932007885, "ln_sigma": 0.6849602151666035, "value": 14.558884139580035}, "pgv": {"ln_phi": 0.5292031246080483, "ln_bias": 0.1910042670566887, "units": "cm/s", "ln_tau": 0.341219446641071, "ln_sigma": 0.6296718652289939, "value": 5.668590146067722}, "sa(1.0)": {"ln_phi": 0.6470730449042408, "ln_bias": 0.34599692801381055, "units": "%g", "ln_tau": 0.3720314549477462, "ln_sigma": 0.7463986394093859, "value": 6.1911562119510855}}, "network": "CIIM", "intensity": "5.8", "pga": "10.8661"}, "type": "Feature", "id": "CIIM.91764", "geometry": {"coordinates": [-117.60261, 34.07519], "type": "Point"}}, {"properties": {"instrumentType": "OBSERVED", "location": "", "distance": "97.41", "source": "HI", "commType": "UNK", "pgv": "13.7450", "channels": [{"name": "UNK", "amplitudes": [{"flag": "0", "name": "pga", "value": "4.2402", "units": "%g", "ln_stddev": "0.0000"}, {"flag": "0", "name": "pgv", "value": "13.7450", "units": "cm/s", "ln_stddev": "0.0000"}, {"flag": "0", "name": "sa(1.0)", "value": "9.7048", "units": "%g", "ln_stddev": "0.0000"}, {"flag": "0", "name": "sa(3.0)", "value": "3.9755", "units": "%g", "ln_stddev": "0.0000"}, {"flag": "0", "name": "sa(0.3)", "value": "12.6594", "units": "%g", "ln_stddev": "0.0000"}]}], "intensity_stddev": "0.6", "code": "SBC", "intensity_flag": "", "name": "NONE", "distances": {"rrup": 97.41463449992175, "rx": 48.329285263662634, "ry0": 90.00141251393107, "rhypo": 112.25098156969055, "rjb": 95.48915747775428}, "predictions": {"pga": {"ln_phi": 0.5180598584999356, "ln_bias": 0.31201683951775716, "units": "%g", "ln_tau": 0.3405470961140277, "ln_sigma": 0.619966403654803, "value": 4.028169362813681}, "sa(3.0)": {"ln_phi": 0.6375358041353617, "ln_bias": 0.05011734227439856, "units": "%g", "ln_tau": 0.40262013516097755, "ln_sigma": 0.7540257785988262, "value": 1.0070769463064193}, "pgv": {"ln_phi": 0.532714428122003, "ln_bias": 0.19145201643408, "units": "cm/s", "ln_tau": 0.34593279421020445, "ln_sigma": 0.6351804153462481, "value": 4.044871375667314}, "sa(0.3)": {"ln_phi": 0.598207031043705, "ln_bias": 0.23920422753698647, "units": "%g", "ln_tau": 0.3429484066431465, "ln_sigma": 0.6895398912384962, "value": 9.857362717871325}, "mmi": {"ln_phi": 0.9650804656543109, "ln_bias": 0.5361948977776081, "units": "intensity", "ln_tau": 0.4747479834861733, "ln_sigma": 1.07553054489946, "value": 4.501818902180919}, "sa(1.0)": {"ln_phi": 0.6493942161190716, "ln_bias": 0.3466375519007087, "units": "%g", "ln_tau": 0.3753006746655676, "ln_sigma": 0.7500422950296427, "value": 4.2180707310531185}}, "network": "HI", "intensity": "6.2", "pga": "4.2402"}, "type": "Feature", "id": "HI.SBC", "geometry": {"coordinates": [-119.71, 34.442], "type": "Point"}}, {"properties": {"instrumentType": "OBSERVED", "location": "", "distance": "41.08", "source": "HI", "commType": "UNK", "pgv": "15.6690", "channels": [{"name": "UNK", "amplitudes": [{"flag": "0", "name": "pga", "value": "19.7890", "units": "%g", "ln_stddev": "0.0000"}, {"flag": "0", "name": "pgv", "value": "15.6690", "units": "cm/s", "ln_stddev": "0.0000"}, {"flag": "0", "name": "sa(1.0)", "value": "15.1689", "units": "%g", "ln_stddev": "0.0000"}, {"flag": "0", "name": "sa(3.0)", "value": "3.3085", "units": "%g", "ln_stddev": "0.0000"}, {"flag": "0", "name": "sa(0.3)", "value": "30.5894", "units": "%g", "ln_stddev": "0.0000"}]}], "intensity_stddev": "0.6", "code": "LAS", "intensity_flag": "", "name": "LOS ANGELES", "distances": {"rrup": 41.077930462355475, "rx": 26.576533305947365, "ry0": 35.72458019343306, "rhypo": 44.340857576991624, "rjb": 36.235060741654216}, "predictions": {"pga": {"ln_phi": 0.49594480366227567, "ln_bias": 0.30768277609609795, "units": "%g", "ln_tau": 0.3111482278805116, "ln_sigma": 0.5854694424073693, "value": 13.238328912182421}, "sa(3.0)": {"ln_phi": 0.6342163628902008, "ln_bias": 0.049956876645940756, "units": "%g", "ln_tau": 0.3974925966968234, "ln_sigma": 0.7484856440750607, "value": 3.265613664564425}, "pgv": {"ln_phi": 0.5234673291606008, "ln_bias": 0.19029103483120208, "units": "cm/s", "ln_tau": 0.33405165074278503, "ln_sigma": 0.6209738722865177, "value": 12.733055699048691}, "sa(0.3)": {"ln_phi": 0.5694318341769953, "ln_bias": 0.23183129182975964, "units": "%g", "ln_tau": 0.3043752675254274, "ln_sigma": 0.6456755510744948, "value": 34.67354902005162}, "mmi": {"ln_phi": 0.9555029298242173, "ln_bias": 0.5321996261842431, "units": "intensity", "ln_tau": 0.45844265193891376, "ln_sigma": 1.0597903160623081, "value": 6.075587138750217}, "sa(1.0)": {"ln_phi": 0.6421024378360679, "ln_bias": 0.3447127641757505, "units": "%g", "ln_tau": 0.3656931375191697, "ln_sigma": 0.7389364055882183, "value": 14.297706445615493}}, "network": "HI", "intensity": "6.4", "pga": "19.7890"}, "type": "Feature", "id": "HI.LAS", "geometry": {"coordinates": [-118.26, 33.929], "type": "Point"}}, {"properties": {"instrumentType": "OBSERVED", "location": "", "distance": "66.53", "source": "CIIM", "commType": "UNK", "pgv": "11.2038", "channels": [{"name": "mmi", "amplitudes": [{"flag": "0", "name": "mmi", "value": "5.9000", "units": "intensity", "ln_stddev": "0.0000"}]}], "intensity_stddev": "0.3", "code": "92801", "intensity_flag": "", "name": "ZIP Code 92801 (Intensity VI, 14 responses)", "distances": {"rrup": 66.53045737482765, "rx": 19.283641529005855, "ry0": 64.76669263680346, "rhypo": 69.96475245094119, "rjb": 64.27107884278814}, "predictions": {"pga": {"ln_phi": 0.4826808077994211, "ln_bias": 0.3076378365113207, "units": "%g", "ln_tau": 0.3108782893869141, "ln_sigma": 0.5741307107532531, "value": 8.305342565820887}, "sa(3.0)": {"ln_phi": 0.6331908234553043, "ln_bias": 0.04990364344447954, "units": "%g", "ln_tau": 0.3958273114685295, "ln_sigma": 0.7467328032250965, "value": 2.613052912749053}, "mmi": {"ln_phi": 0.9338048940517504, "ln_bias": 0.5295532215517503, "units": "intensity", "ln_tau": 0.4484034083618575, "ln_sigma": 1.0358847410718683, "value": 5.605790123949437}, "sa(0.3)": {"ln_phi": 0.5602862842840228, "ln_bias": 0.23215705716480697, "units": "%g", "ln_tau": 0.3058569043211118, "ln_sigma": 0.6383331154481103, "value": 23.88540642819505}, "pgv": {"ln_phi": 0.5022469093306815, "ln_bias": 0.1895202308076048, "units": "cm/s", "ln_tau": 0.32673639358915657, "ln_sigma": 0.5991732878123573, "value": 9.041962414904216}, "sa(1.0)": {"ln_phi": 0.6324240813298313, "ln_bias": 0.3429442685849267, "units": "%g", "ln_tau": 0.3574011595022702, "ln_sigma": 0.7264267392238863, "value": 10.93562510529123}}, "network": "CIIM", "intensity": "5.9", "pga": "12.2062"}, "type": "Feature", "id": "CIIM.92801", "geometry": {"coordinates": [-117.951769, 33.844887], "type": "Point"}}, {"properties": {"instrumentType": "OBSERVED", "location": "", "distance": "13.95", "source": "CIIM", "commType": "UNK", "pgv": "38.6671", "channels": [{"name": "mmi", "amplitudes": [{"flag": "0", "name": "mmi", "value": "7.6000", "units": "intensity", "ln_stddev": "0.0000"}]}], "intensity_stddev": "0.3", "code": "91387", "intensity_flag": "", "name": "ZIP Code 91387 (Intensity VIII, 19 responses)", "distances": {"rrup": 13.954941505846287, "rx": -12.615771868289519, "ry0": 0.0, "rhypo": 31.688006382931725, "rjb": 12.602747027095258}, "predictions": {"pga": {"ln_phi": 0.4858567294364956, "ln_bias": 0.30546507554061747, "units": "%g", "ln_tau": 0.2985266710262386, "ln_sigma": 0.5702411199244897, "value": 32.02334628614083}, "sa(3.0)": {"ln_phi": 0.646008429863703, "ln_bias": 0.050518534514256856, "units": "%g", "ln_tau": 0.4162012243190383, "ln_sigma": 0.7684727389957521, "value": 8.465422605789442}, "mmi": {"ln_phi": 0.9617408784799216, "ln_bias": 0.5358880247708812, "units": "intensity", "ln_tau": 0.473442468939993, "ln_sigma": 1.0719576898065182, "value": 7.421905796171827}, "sa(0.3)": {"ln_phi": 0.5534870494587495, "ln_bias": 0.22775213322817847, "units": "%g", "ln_tau": 0.28717674867508197, "ln_sigma": 0.6235530441735838, "value": 81.81206053602126}, "pgv": {"ln_phi": 0.529497953822738, "ln_bias": 0.1913629574414668, "units": "cm/s", "ln_tau": 0.3449815099276976, "ln_sigma": 0.631965446282042, "value": 33.96118588471551}, "sa(1.0)": {"ln_phi": 0.6463191294714308, "ln_bias": 0.3465833868105548, "units": "%g", "ln_tau": 0.3750213922125508, "ln_sigma": 0.7472412339651419, "value": 36.057486975950795}}, "network": "CIIM", "intensity": "7.6", "pga": "54.0789"}, "type": "Feature", "id": "CIIM.91387", "geometry": {"coordinates": [-118.410121, 34.423357], "type": "Point"}}, {"properties": {"instrumentType": "OBSERVED", "location": "", "distance": "72.05", "source": "CIIM", "commType": "UNK", "pgv": "9.6845", "channels": [{"name": "mmi", "amplitudes": [{"flag": "0", "name": "mmi", "value": "5.7000", "units": "intensity", "ln_stddev": "0.0000"}]}], "intensity_stddev": "0.3", "code": "92840", "intensity_fl